{
  "type": "FeatureCollection",
  "features": [
    {
      "type": "Feature",
      "properties": {
        "norad_id": 34765,
        "name": "IRIDIUM 33 DEB",
        "group": "iridium-33-debris",
        "lat": -33.82166394910278,
        "lon": -140.36679363560677,
        "alt_km": 754.847986227107,
        "timestamp": "2025-12-02T10:50:47.660228+00:00",
        "meta_object_name": "IRIDIUM 33 DEB",
        "meta_object_id": "1997-051LJ",
        "meta_epoch": "2025-12-02T05:08:41.186112",
        "meta_mean_motion": 14.40418763,
        "meta_eccentricity": 0.0014551,
        "meta_inclination": 86.3401,
        "meta_ra_of_asc_node": 37.2773,
        "meta_arg_of_pericenter": 249.3549,
        "meta_mean_anomaly": 173.3707,
        "meta_ephemeris_type": 0,
        "meta_classification_type": "U",
        "meta_norad_cat_id": 34765,
        "meta_element_set_no": 999,
        "meta_rev_at_epoch": 87462,
        "meta_bstar": 0.00049788,
        "meta_mean_motion_dot": 1.602e-05,
        "meta_mean_motion_ddot": 0,
        "tle_line1": "1 34765U 97051LJ  25336.21436558  .00001602  00000+0  49788-3 0  9997",
        "tle_line2": "2 34765  86.3401  37.2773 0014551 249.3549 173.3707 14.40418763874623"
      },
      "geometry": {
        "type": "Point",
        "coordinates": [
          -140.36679363560677,
          -33.82166394910278
        ]
      }
    },
    {
      "type": "Feature",
      "properties": {
        "norad_id": 34833,
        "name": "IRIDIUM 33 DEB",
        "group": "iridium-33-debris",
        "lat": -60.08789066160528,
        "lon": -118.28052171617651,
        "alt_km": 730.6797166704055,
        "timestamp": "2025-12-02T10:50:47.660238+00:00",
        "meta_object_name": "IRIDIUM 33 DEB",
        "meta_object_id": "1997-051MH",
        "meta_epoch": "2025-12-02T05:03:01.051776",
        "meta_mean_motion": 14.52266696,
        "meta_eccentricity": 0.0021485,
        "meta_inclination": 86.3939,
        "meta_ra_of_asc_node": 55.5303,
        "meta_arg_of_pericenter": 130.9995,
        "meta_mean_anomaly": 287.1391,
        "meta_ephemeris_type": 0,
        "meta_classification_type": "U",
        "meta_norad_cat_id": 34833,
        "meta_element_set_no": 999,
        "meta_rev_at_epoch": 87562,
        "meta_bstar": 0.0010041,
        "meta_mean_motion_dot": 4.11e-05,
        "meta_mean_motion_ddot": 0,
        "tle_line1": "1 34833U 97051MH  25336.21042884  .00004110  00000+0  10041-2 0  9994",
        "tle_line2": "2 34833  86.3939  55.5303 0021485 130.9995 287.1391 14.52266696875624"
      },
      "geometry": {
        "type": "Point",
        "coordinates": [
          -118.28052171617651,
          -60.08789066160528
        ]
      }
    },
    {
      "type": "Feature",
      "properties": {
        "norad_id": 34870,
        "name": "IRIDIUM 33 DEB",
        "group": "iridium-33-debris",
        "lat": 46.60331962950197,
        "lon": -37.290549521816814,
        "alt_km": 648.0630918947481,
        "timestamp": "2025-12-02T10:50:47.660248+00:00",
        "meta_object_name": "IRIDIUM 33 DEB",
        "meta_object_id": "1997-051MQ",
        "meta_epoch": "2025-12-01T05:36:37.151712",
        "meta_mean_motion": 14.76055324,
        "meta_eccentricity": 0.0014764,
        "meta_inclination": 86.3102,
        "meta_ra_of_asc_node": 319.3536,
        "meta_arg_of_pericenter": 227.1347,
        "meta_mean_anomaly": 190.7112,
        "meta_ephemeris_type": 0,
        "meta_classification_type": "U",
        "meta_norad_cat_id": 34870,
        "meta_element_set_no": 999,
        "meta_rev_at_epoch": 88741,
        "meta_bstar": 0.0019021,
        "meta_mean_motion_dot": 0.00013168,
        "meta_mean_motion_ddot": 0,
        "tle_line1": "1 34870U 97051MQ  25335.23376333  .00013168  00000+0  19021-2 0  9995",
        "tle_line2": "2 34870  86.3102 319.3536 0014764 227.1347 190.7112 14.76055324887418"
      },
      "geometry": {
        "type": "Point",
        "coordinates": [
          -37.290549521816814,
          46.60331962950197
        ]
      }
    },
    {
      "type": "Feature",
      "properties": {
        "norad_id": 34896,
        "name": "IRIDIUM 33 DEB",
        "group": "iridium-33-debris",
        "lat": -79.67862124616214,
        "lon": 171.94050061263573,
        "alt_km": 664.362876013437,
        "timestamp": "2025-12-02T10:50:47.660258+00:00",
        "meta_object_name": "IRIDIUM 33 DEB",
        "meta_object_id": "1997-051MY",
        "meta_epoch": "2025-11-28T17:59:37.974912",
        "meta_mean_motion": 14.66055051,
        "meta_eccentricity": 0.00237461,
        "meta_inclination": 86.3294,
        "meta_ra_of_asc_node": 332.9598,
        "meta_arg_of_pericenter": 266.6712,
        "meta_mean_anomaly": 266.6276,
        "meta_ephemeris_type": 0,
        "meta_classification_type": "U",
        "meta_norad_cat_id": 34896,
        "meta_element_set_no": 999,
        "meta_rev_at_epoch": 87414,
        "meta_bstar": 0.00096599733,
        "meta_mean_motion_dot": 5.342e-05,
        "meta_mean_motion_ddot": 0,
        "tle_line1": "1 34896U 97051MY  25332.74974508  .00005342  00000+0  96600-3 0  9998",
        "tle_line2": "2 34896  86.3294 332.9598 0023746 266.6712 266.6276 14.66055051874147"
      },
      "geometry": {
        "type": "Point",
        "coordinates": [
          171.94050061263573,
          -79.67862124616214
        ]
      }
    },
    {
      "type": "Feature",
      "properties": {
        "norad_id": 34926,
        "name": "IRIDIUM 33 DEB",
        "group": "iridium-33-debris",
        "lat": 76.30703492650214,
        "lon": 29.155973177099135,
        "alt_km": 724.0112602402205,
        "timestamp": "2025-12-02T10:50:47.660268+00:00",
        "meta_object_name": "IRIDIUM 33 DEB",
        "meta_object_id": "1997-051NF",
        "meta_epoch": "2025-12-02T02:22:03.194112",
        "meta_mean_motion": 14.5364627,
        "meta_eccentricity": 0.0077001,
        "meta_inclination": 86.1337,
        "meta_ra_of_asc_node": 13.2046,
        "meta_arg_of_pericenter": 329.0462,
        "meta_mean_anomaly": 59.3492,
        "meta_ephemeris_type": 0,
        "meta_classification_type": "U",
        "meta_norad_cat_id": 34926,
        "meta_element_set_no": 999,
        "meta_rev_at_epoch": 86302,
        "meta_bstar": 0.0054378,
        "meta_mean_motion_dot": 0.00023732,
        "meta_mean_motion_ddot": 0,
        "tle_line1": "1 34926U 97051NF  25336.09864808  .00023732  00000+0  54378-2 0  9993",
        "tle_line2": "2 34926  86.1337  13.2046 0077001 329.0462  59.3492 14.53646270863020"
      },
      "geometry": {
        "type": "Point",
        "coordinates": [
          29.155973177099135,
          76.30703492650214
        ]
      }
    },
    {
      "type": "Feature",
      "properties": {
        "norad_id": 34985,
        "name": "IRIDIUM 33 DEB",
        "group": "iridium-33-debris",
        "lat": -71.96974103638722,
        "lon": 50.01977717814332,
        "alt_km": 747.4836051489938,
        "timestamp": "2025-12-02T10:50:47.660279+00:00",
        "meta_object_name": "IRIDIUM 33 DEB",
        "meta_object_id": "1997-051NR",
        "meta_epoch": "2025-12-01T05:20:19.248000",
        "meta_mean_motion": 14.4192555,
        "meta_eccentricity": 0.0019807,
        "meta_inclination": 86.3697,
        "meta_ra_of_asc_node": 61.7912,
        "meta_arg_of_pericenter": 260.0842,
        "meta_mean_anomaly": 129.3276,
        "meta_ephemeris_type": 0,
        "meta_classification_type": "U",
        "meta_norad_cat_id": 34985,
        "meta_element_set_no": 999,
        "meta_rev_at_epoch": 87009,
        "meta_bstar": 0.00086459,
        "meta_mean_motion_dot": 2.856e-05,
        "meta_mean_motion_ddot": 0,
        "tle_line1": "1 34985U 97051NR  25335.22244500  .00002856  00000+0  86459-3 0  9993",
        "tle_line2": "2 34985  86.3697  61.7912 0019807 260.0842 129.3276 14.41925550870093"
      },
      "geometry": {
        "type": "Point",
        "coordinates": [
          50.01977717814332,
          -71.96974103638722
        ]
      }
    },
    {
      "type": "Feature",
      "properties": {
        "norad_id": 35051,
        "name": "IRIDIUM 33 DEB",
        "group": "iridium-33-debris",
        "lat": 13.420078366118272,
        "lon": 14.224508654488544,
        "alt_km": 736.7929383418259,
        "timestamp": "2025-12-02T10:50:47.660290+00:00",
        "meta_object_name": "IRIDIUM 33 DEB",
        "meta_object_id": "1997-051NX",
        "meta_epoch": "2025-12-01T09:53:54.581856",
        "meta_mean_motion": 14.47515304,
        "meta_eccentricity": 0.00104451,
        "meta_inclination": 86.3252,
        "meta_ra_of_asc_node": 13.7986,
        "meta_arg_of_pericenter": 121.6547,
        "meta_mean_anomaly": 238.5677,
        "meta_ephemeris_type": 0,
        "meta_classification_type": "U",
        "meta_norad_cat_id": 35051,
        "meta_element_set_no": 999,
        "meta_rev_at_epoch": 86832,
        "meta_bstar": 0.00073041402,
        "meta_mean_motion_dot": 2.705e-05,
        "meta_mean_motion_ddot": 0,
        "tle_line1": "1 35051U 97051NX  25335.41243729  .00002705  00000+0  73041-3 0  9997",
        "tle_line2": "2 35051  86.3252  13.7986 0010445 121.6547 238.5677 14.47515304868325"
      },
      "geometry": {
        "type": "Point",
        "coordinates": [
          14.224508654488544,
          13.420078366118272
        ]
      }
    }
  ]
}